{"type": "FeatureCollection", "features": [ {"type": "Feature", "properties": {"norad_id": 31841, "name": "FENGYUN 1C DEB", "group": "fengyun-1c-debris", "lat": 56.95239237175193, "lon": -6.799832128019938, "alt_km": 1095.8241270875633, "timestamp": "2025-12-17T15:50:10.064432+00:00", "meta": {"OBJECT_NAME": "FENGYUN 1C DEB", "OBJECT_ID": "1999-025CJF", "EPOCH": "2025-12-15T05:57:44.822880", "MEAN_MOTION": 14.03592641, "ECCENTRICITY": 0.03085238, "INCLINATION": 98.4166, "RA_OF_ASC_NODE": 157.8094, "ARG_OF_PERICENTER": 298.3378, "MEAN_ANOMALY": 246.4475, "EPHEMERIS_TYPE": 0, "CLASSIFICATION_TYPE": "U", "NORAD_CAT_ID": 31841, "ELEMENT_SET_NO": 999, "REV_AT_EPOCH": 59374, "BSTAR": 0.0012677307, "MEAN_MOTION_DOT": 2.992e-05, "MEAN_MOTION_DDOT": 0}, "tle": {"line1": "1 31841U 99025CJF 25349.24843545  .00002992  00000+0  12677-2 0  9996", "line2": "2 31841  98.4166 157.8094 0308523 298.3378 246.4475 14.03592641593743"}}, "geometry": {"type": "Point", "coordinates": [-6.799832128019938, 56.95239237175193]}}, {"type": "Feature", "properties": {"norad_id": 31843, "name": "FENGYUN 1C DEB", "group": "fengyun-1c-debris", "lat": 26.91385317815817, "lon": 116.6938488292652, "alt_km": 1603.9397502732709, "timestamp": "2025-12-17T15:50:10.064442+00:00", "meta": {"OBJECT_NAME": "FENGYUN 1C DEB", "OBJECT_ID": "1999-025CJH", "EPOCH": "2025-12-16T15:40:09.812640", "MEAN_MOTION": 13.33949191, "ECCENTRICITY": 0.06398792, "INCLINATION": 99.2827, "RA_OF_ASC_NODE": 291.0118, "ARG_OF_PERICENTER": 344.4578, "MEAN_ANOMALY": 13.7684, "EPHEMERIS_TYPE": 0, "CLASSIFICATION_TYPE": "U", "NORAD_CAT_ID": 31843, "ELEMENT_SET_NO": 999, "REV_AT_EPOCH": 64748, "BSTAR": 0.0054292253, "MEAN_MOTION_DOT": 8.684e-05, "MEAN_MOTION_DDOT": 0}, "tle": {"line1": "1 31843U 99025CJH 25350.65289135  .00008684  00000+0  54292-2 0  9997", "line2": "2 31843  99.2827 291.0118 0639879 344.4578  13.7684 13.33949191647488"}}, "geometry": {"type": "Point", "coordinates": [116.6938488292652, 26.91385317815817]}}, {"type": "Feature", "properties": {"norad_id": 31844, "name": "FENGYUN 1C DEB", "group": "fengyun-1c-debris", "lat": -27.556345944164732, "lon": -13.427277185504536, "alt_km": 757.6047822145028, "timestamp": "2025-12-17T15:50:10.064452+00:00", "meta": {"OBJECT_NAME": "FENGYUN 1C DEB", "OBJECT_ID": "1999-025CJJ", "EPOCH": "2025-12-13T22:19:33.784896", "MEAN_MOTION": 14.19755878, "ECCENTRICITY": 0.01034294, "INCLINATION": 100.3032, "RA_OF_ASC_NODE": 336.7917, "ARG_OF_PERICENTER": 347.7797, "MEAN_ANOMALY": 12.0868, "EPHEMERIS_TYPE": 0, "CLASSIFICATION_TYPE": "U", "NORAD_CAT_ID": 31844, "ELEMENT_SET_NO": 999, "REV_AT_EPOCH": 95349, "BSTAR": 0.0011790432, "MEAN_MOTION_DOT": 2.577e-05, "MEAN_MOTION_DDOT": 0}, "tle": {"line1": "1 31844U 99025CJJ 25347.93025214  .00002577  00000+0  11790-2 0  9992", "line2": "2 31844 100.3032 336.7917 0103429 347.7797  12.0868 14.19755878953490"}}, "geometry": {"type": "Point", "coordinates": [-13.427277185504536, -27.556345944164732]}}, {"type": "Feature", "properties": {"norad_id": 31850, "name": "FENGYUN 1C DEB", "group": "fengyun-1c-debris", "lat": 37.85091983043272, "lon": 30.27755247133051, "alt_km": 417.77854474750256, "timestamp": "2025-12-17T15:50:10.064464+00:00", "meta": {"OBJECT_NAME": "FENGYUN 1C DEB", "OBJECT_ID": "1999-025CJQ", "EPOCH": "2025-12-14T09:23:04.476192", "MEAN_MOTION": 15.33433546, "ECCENTRICITY": 0.00762245, "INCLINATION": 98.5734, "RA_OF_ASC_NODE": 33.2199, "ARG_OF_PERICENTER": 83.7911, "MEAN_ANOMALY": 277.2005, "EPHEMERIS_TYPE": 0, "CLASSIFICATION_TYPE": "U", "NORAD_CAT_ID": 31850, "ELEMENT_SET_NO": 999, "REV_AT_EPOCH": 65854, "BSTAR": 0.0030655456, "MEAN_MOTION_DOT": 0.00109983, "MEAN_MOTION_DDOT": 0}, "tle": {"line1": "1 31850U 99025CJQ 25348.39102403  .00109983  00000+0  30655-2 0  9996", "line2": "2 31850  98.5734  33.2199 0076224  83.7911 277.2005 15.33433546658540"}}, "geometry": {"type": "Point", "coordinates": [30.27755247133051, 37.85091983043272]}}, {"type": "Feature", "properties": {"norad_id": 31854, "name": "FENGYUN 1C DEB", "group": "fengyun-1c-debris", "lat": -14.61439889795711, "lon": -2.9487990093828755, "alt_km": 929.0871917765553, "timestamp": "2025-12-17T15:50:10.064477+00:00", "meta": {"OBJECT_NAME": "FENGYUN 1C DEB", "OBJECT_ID": "1999-025CJU", "EPOCH": "2025-12-16T17:39:28.807776", "MEAN_MOTION": 14.03079904, "ECCENTRICITY": 0.00722941, "INCLINATION": 98.8474, "RA_OF_ASC_NODE": 353.8254, "ARG_OF_PERICENTER": 130.1288, "MEAN_ANOMALY": 230.6242, "EPHEMERIS_TYPE": 0, "CLASSIFICATION_TYPE": "U", "NORAD_CAT_ID": 31854, "ELEMENT_SET_NO": 999, "REV_AT_EPOCH": 69328, "BSTAR": 0.00056714271, "MEAN_MOTION_DOT": 8.6e-06, "MEAN_MOTION_DDOT": 0}, "tle": {"line1": "1 31854U 99025CJU 25350.73575009  .00000860  00000+0  56714-3 0  9996", "line2": "2 31854  98.8474 353.8254 0072294 130.1288 230.6242 14.03079904693284"}}, "geometry": {"type": "Point", "coordinates": [-2.9487990093828755, -14.61439889795711]}}, {"type": "Feature", "properties": {"norad_id": 31857, "name": "FENGYUN 1C DEB", "group": "fengyun-1c-debris", "lat": 77.83649412780248, "lon": -130.3382461654549, "alt_km": 1244.9109820788199, "timestamp": "2025-12-17T15:50:10.064487+00:00", "meta": {"OBJECT_NAME": "FENGYUN 1C DEB", "OBJECT_ID": "1999-025CJX", "EPOCH": "2025-12-15T21:00:25.166592", "MEAN_MOTION": 13.61938441, "ECCENTRICITY": 0.03090507, "INCLINATION": 96.1875, "RA_OF_ASC_NODE": 18.3078, "ARG_OF_PERICENTER": 273.3355, "MEAN_ANOMALY": 83.2492, "EPHEMERIS_TYPE": 0, "CLASSIFICATION_TYPE": "U", "NORAD_CAT_ID": 31857, "ELEMENT_SET_NO": 999, "REV_AT_EPOCH": 61672, "BSTAR": 0.0015742297, "MEAN_MOTION_DOT": 1.644e-05, "MEAN_MOTION_DDOT": 0}, "tle": {"line1": "1 31857U 99025CJX 25349.87529128  .00001644  00000+0  15742-2 0  9999", "line2": "2 31857  96.1875  18.3078 0309050 273.3355  83.2492 13.61938441616724"}}, "geometry": {"type": "Point", "coordinates": [-130.3382461654549, 77.83649412780248]}}, {"type": "Feature", "properties": {"norad_id": 31861, "name": "FENGYUN 1C DEB", "group": "fengyun-1c-debris", "lat": -50.835173775073265, "lon": -10.328324517001018, "alt_km": 851.4966891971917, "timestamp": "2025-12-17T15:50:10.064499+00:00", "meta": {"OBJECT_NAME": "FENGYUN 1C DEB", "OBJECT_ID": "1999-025CKB", "EPOCH": "2025-11-30T18:20:57.621120", "MEAN_MOTION": 13.30200627, "ECCENTRICITY": 0.04966148, "INCLINATION": 102.3423, "RA_OF_ASC_NODE": 165.0071, "ARG_OF_PERICENTER": 230.9853, "MEAN_ANOMALY": 124.6046, "EPHEMERIS_TYPE": 0, "CLASSIFICATION_TYPE": "U", "NORAD_CAT_ID": 31861, "ELEMENT_SET_NO": 999, "REV_AT_EPOCH": 66608, "BSTAR": 0.0034105388, "MEAN_MOTION_DOT": 3.105e-05, "MEAN_MOTION_DDOT": 0}, "tle": {"line1": "1 31861U 99025CKB 25334.76455580  .00003105  00000+0  34105-2 0  9994", "line2": "2 31861 102.3423 165.0071 0496614 230.9853 124.6046 13.30200627666089"}}, "geometry": {"type": "Point", "coordinates": [-10.328324517001018, -50.835173775073265]}}, {"type": "Feature", "properties": {"norad_id": 31877, "name": "FENGYUN 1C DEB", "group": "fengyun-1c-debris", "lat": -16.865573457141096, "lon": -120.09498704919856, "alt_km": 536.696632778885, "timestamp": "2025-12-17T15:50:10.064510+00:00", "meta": {"OBJECT_NAME": "FENGYUN 1C DEB", "OBJECT_ID": "1999-025CKC", "EPOCH": "2025-12-17T03:45:25.024032", "MEAN_MOTION": 15.01619291, "ECCENTRICITY": 0.01044142, "INCLINATION": 99.0034, "RA_OF_ASC_NODE": 62.077, "ARG_OF_PERICENTER": 264.6102, "MEAN_ANOMALY": 94.3199, "EPHEMERIS_TYPE": 0, "CLASSIFICATION_TYPE": "U", "NORAD_CAT_ID": 31877, "ELEMENT_SET_NO": 999, "REV_AT_EPOCH": 99108, "BSTAR": 0.00075887909, "MEAN_MOTION_DOT": 0.00010994, "MEAN_MOTION_DDOT": 0}, "tle": {"line1": "1 31877U 99025CKC 25351.15653963  .00010994  00000+0  75888-3 0  9996", "line2": "2 31877  99.0034  62.0770 0104414 264.6102  94.3199 15.01619291991087"}}, "geometry": {"type": "Point", "coordinates": [-120.09498704919856, -16.865573457141096]}}, {"type": "Feature", "properties": {"norad_id": 31878, "name": "FENGYUN 1C DEB", "group": "fengyun-1c-debris", "lat": 39.855624314693365, "lon": 104.10002554845103, "alt_km": 601.19867417143, "timestamp": "2025-12-17T15:50:10.064520+00:00", "meta": {"OBJECT_NAME": "FENGYUN 1C DEB", "OBJECT_ID": "1999-025CKD", "EPOCH": "2025-12-03T00:27:41.548032", "MEAN_MOTION": 14.85464766, "ECCENTRICITY": 0.00842743, "INCLINATION": 99.4399, "RA_OF_ASC_NODE": 258.7733, "ARG_OF_PERICENTER": 269.6043, "MEAN_ANOMALY": 89.551, "EPHEMERIS_TYPE": 0, "CLASSIFICATION_TYPE": "U", "NORAD_CAT_ID": 31878, "ELEMENT_SET_NO": 999, "REV_AT_EPOCH": 97949, "BSTAR": 0.0019397439, "MEAN_MOTION_DOT": 0.000178, "MEAN_MOTION_DDOT": 0}, "tle": {"line1": "1 31878U 99025CKD 25337.01923088  .00017800  00000+0  19397-2 0  9999", "line2": "2 31878  99.4399 258.7733 0084274 269.6043  89.5510 14.85464766979499"}}, "geometry": {"type": "Point", "coordinates": [104.10002554845103, 39.855624314693365]}}, {"type": "Feature", "properties": {"norad_id": 31879, "name": "FENGYUN 1C DEB", "group": "fengyun-1c-debris", "lat": -64.24624773976187, "lon": 30.02696882969848, "alt_km": 862.9657952150383, "timestamp": "2025-12-17T15:50:10.064531+00:00", "meta": {"OBJECT_NAME": "FENGYUN 1C DEB", "OBJECT_ID": "1999-025CKE", "EPOCH": "2025-12-14T11:48:26.424000", "MEAN_MOTION": 14.42910694, "ECCENTRICITY": 0.0209705, "INCLINATION": 99.7074, "RA_OF_ASC_NODE": 227.2035, "ARG_OF_PERICENTER": 31.6821, "MEAN_ANOMALY": 329.6789, "EPHEMERIS_TYPE": 0, "CLASSIFICATION_TYPE": "U", "NORAD_CAT_ID": 31879, "ELEMENT_SET_NO": 999, "REV_AT_EPOCH": 63235, "BSTAR": 0.00041086196, "MEAN_MOTION_DOT": 1.725e-05, "MEAN_MOTION_DDOT": 0}, "tle": {"line1": "1 31879U 99025CKE 25348.49197250  .00001725  00000+0  41086-3 0  9998", "line2": "2 31879  99.7074 227.2035 0209705  31.6821 329.6789 14.42910694632354"}}, "geometry": {"type": "Point", "coordinates": [30.02696882969848, -64.24624773976187]}}]}